{
  "type": "FeatureCollection",
  "features": [
    {
      "type": "Feature",
      "properties": {
        "norad_id": 36828,
        "name": "BEIDOU-2 IGSO-1 (C06)",
        "group": "beidou",
        "lat": -17.956827277732266,
        "lon": 151.1191921930447,
        "alt_km": 35900.85364416664,
        "timestamp": "2025-12-14T20:40:32.036423+00:00",
        "meta_object_name": "BEIDOU-2 IGSO-1 (C06)",
        "meta_object_id": "2010-036A",
        "meta_epoch": "2025-12-13T21:54:21.538656",
        "meta_mean_motion": 1.00275899,
        "meta_eccentricity": 0.00512465,
        "meta_inclination": 54.2867,
        "meta_ra_of_asc_node": 164.6367,
        "meta_arg_of_pericenter": 215.8478,
        "meta_mean_anomaly": 138.8413,
        "meta_ephemeris_type": 0,
        "meta_classification_type": "U",
        "meta_norad_cat_id": 36828,
        "meta_element_set_no": 999,
        "meta_rev_at_epoch": 5623,
        "meta_bstar": 0,
        "meta_mean_motion_dot": -2.9e-07,
        "meta_mean_motion_ddot": 0,
        "tle_line1": "1 36828U 10036A   25347.91274929 -.00000029  00000+0  00000+0 0  9991",
        "tle_line2": "2 36828  54.2867 164.6367 0051246 215.8478 138.8413  1.00275899 56232"
      },
      "geometry": {
        "type": "Point",
        "coordinates": [
          151.1191921930447,
          -17.956827277732266
        ]
      }
    },
    {
      "type": "Feature",
      "properties": {
        "norad_id": 37210,
        "name": "BEIDOU-2 G4 (C04)",
        "group": "beidou",
        "lat": 2.6345960251515637,
        "lon": -166.09591202940913,
        "alt_km": 35768.41748164813,
        "timestamp": "2025-12-14T20:40:32.036446+00:00",
        "meta_object_name": "BEIDOU-2 G4 (C04)",
        "meta_object_id": "2010-057A",
        "meta_epoch": "2025-12-14T07:19:54.939936",
        "meta_mean_motion": 1.00271726,
        "meta_eccentricity": 0.00107273,
        "meta_inclination": 3.1887,
        "meta_ra_of_asc_node": 69.9344,
        "meta_arg_of_pericenter": 191.5622,
        "meta_mean_anomaly": 91.7831,
        "meta_ephemeris_type": 0,
        "meta_classification_type": "U",
        "meta_norad_cat_id": 37210,
        "meta_element_set_no": 999,
        "meta_rev_at_epoch": 5543,
        "meta_bstar": 0,
        "meta_mean_motion_dot": -9.5e-07,
        "meta_mean_motion_ddot": 0,
        "tle_line1": "1 37210U 10057A   25348.30549699 -.00000095  00000+0  00000+0 0  9996",
        "tle_line2": "2 37210   3.1887  69.9344 0010727 191.5622  91.7831  1.00271726 55432"
      },
      "geometry": {
        "type": "Point",
        "coordinates": [
          -166.09591202940913,
          2.6345960251515637
        ]
      }
    },
    {
      "type": "Feature",
      "properties": {
        "norad_id": 37256,
        "name": "BEIDOU-2 IGSO-2 (C07)",
        "group": "beidou",
        "lat": -33.243334131676214,
        "lon": 130.3809950421725,
        "alt_km": 35583.56608675538,
        "timestamp": "2025-12-14T20:40:32.036461+00:00",
        "meta_object_name": "BEIDOU-2 IGSO-2 (C07)",
        "meta_object_id": "2010-068A",
        "meta_epoch": "2025-12-03T17:22:36.027840",
        "meta_mean_motion": 1.0028872,
        "meta_eccentricity": 0.00492449,
        "meta_inclination": 47.9042,
        "meta_ra_of_asc_node": 274.2614,
        "meta_arg_of_pericenter": 216.1411,
        "meta_mean_anomaly": 310.24,
        "meta_ephemeris_type": 0,
        "meta_classification_type": "U",
        "meta_norad_cat_id": 37256,
        "meta_element_set_no": 999,
        "meta_rev_at_epoch": 5483,
        "meta_bstar": 0,
        "meta_mean_motion_dot": -2.25e-06,
        "meta_mean_motion_ddot": 0,
        "tle_line1": "1 37256U 10068A   25337.72402810 -.00000225  00000+0  00000+0 0  9990",
        "tle_line2": "2 37256  47.9042 274.2614 0049244 216.1411 310.2400  1.00288720 54834"
      },
      "geometry": {
        "type": "Point",
        "coordinates": [
          130.3809950421725,
          -33.243334131676214
        ]
      }
    },
    {
      "type": "Feature",
      "properties": {
        "norad_id": 37384,
        "name": "BEIDOU-2 IGSO-3 (C08)",
        "group": "beidou",
        "lat": 60.8407062747447,
        "lon": 150.78586216521103,
        "alt_km": 35776.51572014402,
        "timestamp": "2025-12-14T20:40:32.036476+00:00",
        "meta_object_name": "BEIDOU-2 IGSO-3 (C08)",
        "meta_object_id": "2011-013A",
        "meta_epoch": "2025-12-13T13:58:02.786016",
        "meta_mean_motion": 1.00270696,
        "meta_eccentricity": 0.00354199,
        "meta_inclination": 62.1449,
        "meta_ra_of_asc_node": 41.9072,
        "meta_arg_of_pericenter": 187.5637,
        "meta_mean_anomaly": 170.0888,
        "meta_ephemeris_type": 0,
        "meta_classification_type": "U",
        "meta_norad_cat_id": 37384,
        "meta_element_set_no": 999,
        "meta_rev_at_epoch": 5379,
        "meta_bstar": 0,
        "meta_mean_motion_dot": -1.97e-06,
        "meta_mean_motion_ddot": 0,
        "tle_line1": "1 37384U 11013A   25347.58197669 -.00000197  00000+0  00000+0 0  9999",
        "tle_line2": "2 37384  62.1449  41.9072 0035419 187.5637 170.0888  1.00270696 53792"
      },
      "geometry": {
        "type": "Point",
        "coordinates": [
          150.78586216521103,
          60.8407062747447
        ]
      }
    },
    {
      "type": "Feature",
      "properties": {
        "norad_id": 37763,
        "name": "BEIDOU-2 IGSO-4 (C09)",
        "group": "beidou",
        "lat": -29.52575152450105,
        "lon": 143.5204504289543,
        "alt_km": 35804.560996045686,
        "timestamp": "2025-12-14T20:40:32.036489+00:00",
        "meta_object_name": "BEIDOU-2 IGSO-4 (C09)",
        "meta_object_id": "2011-038A",
        "meta_epoch": "2025-12-10T12:04:03.489024",
        "meta_mean_motion": 1.00284678,
        "meta_eccentricity": 0.01490344,
        "meta_inclination": 54.5829,
        "meta_ra_of_asc_node": 167.3658,
        "meta_arg_of_pericenter": 230.2355,
        "meta_mean_anomaly": 317.2212,
        "meta_ephemeris_type": 0,
        "meta_classification_type": "U",
        "meta_norad_cat_id": 37763,
        "meta_element_set_no": 999,
        "meta_rev_at_epoch": 5275,
        "meta_bstar": 0,
        "meta_mean_motion_dot": 3.6e-07,
        "meta_mean_motion_ddot": 0,
        "tle_line1": "1 37763U 11038A   25344.50281816  .00000036  00000+0  00000+0 0  9995",
        "tle_line2": "2 37763  54.5829 167.3658 0149034 230.2355 317.2212  1.00284678 52751"
      },
      "geometry": {
        "type": "Point",
        "coordinates": [
          143.5204504289543,
          -29.52575152450105
        ]
      }
    },
    {
      "type": "Feature",
      "properties": {
        "norad_id": 37948,
        "name": "BEIDOU-2 IGSO-5 (C10)",
        "group": "beidou",
        "lat": -23.90025670820678,
        "lon": 117.27281803241003,
        "alt_km": 35326.69286924124,
        "timestamp": "2025-12-14T20:40:32.036501+00:00",
        "meta_object_name": "BEIDOU-2 IGSO-5 (C10)",
        "meta_object_id": "2011-073A",
        "meta_epoch": "2025-12-12T18:24:47.608416",
        "meta_mean_motion": 1.00291151,
        "meta_eccentricity": 0.01101752,
        "meta_inclination": 48.0199,
        "meta_ra_of_asc_node": 273.857,
        "meta_arg_of_pericenter": 222.308,
        "meta_mean_anomaly": 314.7254,
        "meta_ephemeris_type": 0,
        "meta_classification_type": "U",
        "meta_norad_cat_id": 37948,
        "meta_element_set_no": 999,
        "meta_rev_at_epoch": 5126,
        "meta_bstar": 0,
        "meta_mean_motion_dot": -2.21e-06,
        "meta_mean_motion_ddot": 0,
        "tle_line1": "1 37948U 11073A   25346.76721769 -.00000221  00000+0  00000+0 0  9992",
        "tle_line2": "2 37948  48.0199 273.8570 0110175 222.3080 314.7254  1.00291151 51268"
      },
      "geometry": {
        "type": "Point",
        "coordinates": [
          117.27281803241003,
          -23.90025670820678
        ]
      }
    },
    {
      "type": "Feature",
      "properties": {
        "norad_id": 38091,
        "name": "BEIDOU-2 G5 (C05)",
        "group": "beidou",
        "lat": 1.1903025089629218,
        "lon": 92.7576094349807,
        "alt_km": 35832.27245171832,
        "timestamp": "2025-12-14T20:40:32.036514+00:00",
        "meta_object_name": "BEIDOU-2 G5 (C05)",
        "meta_object_id": "2012-008A",
        "meta_epoch": "2025-12-14T01:42:50.088384",
        "meta_mean_motion": 1.00276262,
        "meta_eccentricity": 0.00125582,
        "meta_inclination": 3.1128,
        "meta_ra_of_asc_node": 70.7076,
        "meta_arg_of_pericenter": 228.1722,
        "meta_mean_anomaly": 228.6353,
        "meta_ephemeris_type": 0,
        "meta_classification_type": "U",
        "meta_norad_cat_id": 38091,
        "meta_element_set_no": 999,
        "meta_rev_at_epoch": 5051,
        "meta_bstar": 0,
        "meta_mean_motion_dot": 7.1e-07,
        "meta_mean_motion_ddot": 0,
        "tle_line1": "1 38091U 12008A   25348.07141306  .00000071  00000+0  00000+0 0  9992",
        "tle_line2": "2 38091   3.1128  70.7076 0012558 228.1722 228.6353  1.00276262 50516"
      },
      "geometry": {
        "type": "Point",
        "coordinates": [
          92.7576094349807,
          1.1903025089629218
        ]
      }
    }
  ]
}